XRISM                   
1 57800U 23137A   24103.91584862  .00004754  00000+0  36420-3 0  9996
2 57800  31.0038  67.8283 0010281 281.0822  78.8658 15.00241841 32795
